{"type": "FeatureCollection", "features": [ {"type": "Feature", "properties": {"norad_id": 66363, "name": "STARLINK-35806", "group": "last-30-days", "lat": 31.76598352466621, "lon": 119.10166789393595, "alt_km": 359.0443305285771, "timestamp": "2025-12-02T07:10:07.865178+00:00", "meta": {"OBJECT_NAME": "STARLINK-35806", "OBJECT_ID": "2025-254R", "EPOCH": "2025-12-01T20:00:01.999008", "MEAN_MOTION": 15.70314025, "ECCENTRICITY": 9.79e-05, "INCLINATION": 53.1589, "RA_OF_ASC_NODE": 329.0569, "ARG_OF_PERICENTER": 96.3701, "MEAN_ANOMALY": 291.8994, "EPHEMERIS_TYPE": 0, "CLASSIFICATION_TYPE": "U", "NORAD_CAT_ID": 66363, "ELEMENT_SET_NO": 999, "REV_AT_EPOCH": 514, "BSTAR": -0.017821, "MEAN_MOTION_DOT": -0.01958419, "MEAN_MOTION_DDOT": 0}, "tle": {"line1": "1 66363U 25254R   25335.83335647 -.01958419  00000+0 -17821-1 0  9997", "line2": "2 66363  53.1589 329.0569 0000979  96.3701 291.8994 15.70314025  5142"}}, "geometry": {"type": "Point", "coordinates": [119.10166789393595, 31.76598352466621]}}, {"type": "Feature", "properties": {"norad_id": 66364, "name": "STARLINK-35797", "group": "last-30-days", "lat": 29.008940976626555, "lon": 122.18890920128656, "alt_km": 359.6517052815834, "timestamp": "2025-12-02T07:10:07.865189+00:00", "meta": {"OBJECT_NAME": "STARLINK-35797", "OBJECT_ID": "2025-254S", "EPOCH": "2025-12-01T20:00:01.999008", "MEAN_MOTION": 15.70319053, "ECCENTRICITY": 8.03e-05, "INCLINATION": 53.1591, "RA_OF_ASC_NODE": 329.0486, "ARG_OF_PERICENTER": 93.9928, "MEAN_ANOMALY": 298.1091, "EPHEMERIS_TYPE": 0, "CLASSIFICATION_TYPE": "U", "NORAD_CAT_ID": 66364, "ELEMENT_SET_NO": 999, "REV_AT_EPOCH": 517, "BSTAR": -0.017896, "MEAN_MOTION_DOT": -0.01965864, "MEAN_MOTION_DDOT": 0}, "tle": {"line1": "1 66364U 25254S   25335.83335647 -.01965864  00000+0 -17896-1 0  9992", "line2": "2 66364  53.1591 329.0486 0000803  93.9928 298.1091 15.70319053  5171"}}, "geometry": {"type": "Point", "coordinates": [122.18890920128656, 29.008940976626555]}}, {"type": "Feature", "properties": {"norad_id": 66365, "name": "STARLINK-35827", "group": "last-30-days", "lat": 26.183833592950496, "lon": 125.1145859935079, "alt_km": 360.03830186490814, "timestamp": "2025-12-02T07:10:07.865199+00:00", "meta": {"OBJECT_NAME": "STARLINK-35827", "OBJECT_ID": "2025-254T", "EPOCH": "2025-12-01T20:00:01.999008", "MEAN_MOTION": 15.70321879, "ECCENTRICITY": 9.15e-05, "INCLINATION": 53.1587, "RA_OF_ASC_NODE": 329.0413, "ARG_OF_PERICENTER": 99.4447, "MEAN_ANOMALY": 296.4884, "EPHEMERIS_TYPE": 0, "CLASSIFICATION_TYPE": "U", "NORAD_CAT_ID": 66365, "ELEMENT_SET_NO": 999, "REV_AT_EPOCH": 514, "BSTAR": -0.017918, "MEAN_MOTION_DOT": -0.01968322, "MEAN_MOTION_DDOT": 0}, "tle": {"line1": "1 66365U 25254T   25335.83335647 -.01968322  00000+0 -17918-1 0  9990", "line2": "2 66365  53.1587 329.0413 0000915  99.4447 296.4884 15.70321879  5145"}}, "geometry": {"type": "Point", "coordinates": [125.1145859935079, 26.183833592950496]}}, {"type": "Feature", "properties": {"norad_id": 66366, "name": "STARLINK-35845", "group": "last-30-days", "lat": 27.604714347456913, "lon": 123.66955113427447, "alt_km": 359.73390440367166, "timestamp": "2025-12-02T07:10:07.865211+00:00", "meta": {"OBJECT_NAME": "STARLINK-35845", "OBJECT_ID": "2025-254U", "EPOCH": "2025-12-01T20:00:01.999008", "MEAN_MOTION": 15.70318808, "ECCENTRICITY": 9.57e-05, "INCLINATION": 53.1589, "RA_OF_ASC_NODE": 329.0445, "ARG_OF_PERICENTER": 102.4972, "MEAN_ANOMALY": 291.5204, "EPHEMERIS_TYPE": 0, "CLASSIFICATION_TYPE": "U", "NORAD_CAT_ID": 66366, "ELEMENT_SET_NO": 999, "REV_AT_EPOCH": 517, "BSTAR": -0.017885, "MEAN_MOTION_DOT": -0.01964885, "MEAN_MOTION_DDOT": 0}, "tle": {"line1": "1 66366U 25254U   25335.83335647 -.01964885  00000+0 -17885-1 0  9994", "line2": "2 66366  53.1589 329.0445 0000957 102.4972 291.5204 15.70318808  5170"}}, "geometry": {"type": "Point", "coordinates": [123.66955113427447, 27.604714347456913]}}, {"type": "Feature", "properties": {"norad_id": 66367, "name": "STARLINK-35846", "group": "last-30-days", "lat": 24.74868321385944, "lon": 126.5231006223624, "alt_km": 360.39070074283154, "timestamp": "2025-12-02T07:10:07.865223+00:00", "meta": {"OBJECT_NAME": "STARLINK-35846", "OBJECT_ID": "2025-254V", "EPOCH": "2025-12-01T20:00:01.999008", "MEAN_MOTION": 15.70316934, "ECCENTRICITY": 0.0001067, "INCLINATION": 53.1585, "RA_OF_ASC_NODE": 329.0365, "ARG_OF_PERICENTER": 81.3998, "MEAN_ANOMALY": 316.4522, "EPHEMERIS_TYPE": 0, "CLASSIFICATION_TYPE": "U", "NORAD_CAT_ID": 66367, "ELEMENT_SET_NO": 999, "REV_AT_EPOCH": 512, "BSTAR": -0.017877, "MEAN_MOTION_DOT": -0.01964135, "MEAN_MOTION_DDOT": 0}, "tle": {"line1": "1 66367U 25254V   25335.83335647 -.01964135  00000+0 -17877-1 0  9994", "line2": "2 66367  53.1585 329.0365 0001067  81.3998 316.4522 15.70316934  5127"}}, "geometry": {"type": "Point", "coordinates": [126.5231006223624, 24.74868321385944]}}, {"type": "Feature", "properties": {"norad_id": 66368, "name": "STARLINK-34861", "group": "last-30-days", "lat": 9.924564857547946, "lon": 139.16469263506167, "alt_km": 344.69227921512356, "timestamp": "2025-12-02T07:10:07.865233+00:00", "meta": {"OBJECT_NAME": "STARLINK-34861", "OBJECT_ID": "2025-254W", "EPOCH": "2025-12-01T13:42:12.226176", "MEAN_MOTION": 15.74310652, "ECCENTRICITY": 0.00014046, "INCLINATION": 53.1573, "RA_OF_ASC_NODE": 330.3176, "ARG_OF_PERICENTER": 93.2366, "MEAN_ANOMALY": 266.8814, "EPHEMERIS_TYPE": 0, "CLASSIFICATION_TYPE": "U", "NORAD_CAT_ID": 66368, "ELEMENT_SET_NO": 999, "REV_AT_EPOCH": 392, "BSTAR": 0.0018549157, "MEAN_MOTION_DOT": 0.00281787, "MEAN_MOTION_DDOT": 0}, "tle": {"line1": "1 66368U 25254W   25335.57097484  .00281787  00000+0  18549-2 0  9990", "line2": "2 66368  53.1573 330.3176 0001404  93.2366 266.8814 15.74310652  3929"}}, "geometry": {"type": "Point", "coordinates": [139.16469263506167, 9.924564857547946]}}, {"type": "Feature", "properties": {"norad_id": 66369, "name": "STARLINK-35795", "group": "last-30-days", "lat": 11.553243274826105, "lon": 137.89067091566102, "alt_km": 344.9877718856915, "timestamp": "2025-12-02T07:10:07.865244+00:00", "meta": {"OBJECT_NAME": "STARLINK-35795", "OBJECT_ID": "2025-254X", "EPOCH": "2025-12-01T12:11:16.281312", "MEAN_MOTION": 15.74277166, "ECCENTRICITY": 0.00013549, "INCLINATION": 53.1574, "RA_OF_ASC_NODE": 330.635, "ARG_OF_PERICENTER": 76.8176, "MEAN_ANOMALY": 283.2995, "EPHEMERIS_TYPE": 0, "CLASSIFICATION_TYPE": "U", "NORAD_CAT_ID": 66369, "ELEMENT_SET_NO": 999, "REV_AT_EPOCH": 391, "BSTAR": 0.0014031395, "MEAN_MOTION_DOT": 0.00210891, "MEAN_MOTION_DDOT": 0}, "tle": {"line1": "1 66369U 25254X   25335.50782733  .00210891  00000+0  14031-2 0  9992", "line2": "2 66369  53.1574 330.6350 0001354  76.8176 283.2995 15.74277166  3912"}}, "geometry": {"type": "Point", "coordinates": [137.89067091566102, 11.553243274826105]}}, {"type": "Feature", "properties": {"norad_id": 66370, "name": "STARLINK-35824", "group": "last-30-days", "lat": 8.446339718187911, "lon": 140.30736941365484, "alt_km": 345.2295976689329, "timestamp": "2025-12-02T07:10:07.865255+00:00", "meta": {"OBJECT_NAME": "STARLINK-35824", "OBJECT_ID": "2025-254Y", "EPOCH": "2025-12-01T13:41:43.102464", "MEAN_MOTION": 15.74302208, "ECCENTRICITY": 0.00014941, "INCLINATION": 53.1574, "RA_OF_ASC_NODE": 330.3159, "ARG_OF_PERICENTER": 81.032, "MEAN_ANOMALY": 279.0869, "EPHEMERIS_TYPE": 0, "CLASSIFICATION_TYPE": "U", "NORAD_CAT_ID": 66370, "ELEMENT_SET_NO": 999, "REV_AT_EPOCH": 392, "BSTAR": 0.0017428246, "MEAN_MOTION_DOT": 0.00264061, "MEAN_MOTION_DDOT": 0}, "tle": {"line1": "1 66370U 25254Y   25335.57063776  .00264061  00000+0  17428-2 0  9991", "line2": "2 66370  53.1574 330.3159 0001494  81.0320 279.0869 15.74302208  3922"}}, "geometry": {"type": "Point", "coordinates": [140.30736941365484, 8.446339718187911]}}, {"type": "Feature", "properties": {"norad_id": 66371, "name": "STARLINK-35804", "group": "last-30-days", "lat": 5.858750128877959, "lon": 142.2802175624672, "alt_km": 345.76372051420003, "timestamp": "2025-12-02T07:10:07.865267+00:00", "meta": {"OBJECT_NAME": "STARLINK-35804", "OBJECT_ID": "2025-254Z", "EPOCH": "2025-12-01T19:46:26.547168", "MEAN_MOTION": 15.74244541, "ECCENTRICITY": 0.0001594, "INCLINATION": 53.1569, "RA_OF_ASC_NODE": 329.0504, "ARG_OF_PERICENTER": 119.2531, "MEAN_ANOMALY": 240.8649, "EPHEMERIS_TYPE": 0, "CLASSIFICATION_TYPE": "U", "NORAD_CAT_ID": 66371, "ELEMENT_SET_NO": 999, "REV_AT_EPOCH": 396, "BSTAR": 0.001183, "MEAN_MOTION_DOT": 0.00176725, "MEAN_MOTION_DDOT": 0}, "tle": {"line1": "1 66371U 25254Z   25335.82391837  .00176725  00000+0  11830-2 0  9992", "line2": "2 66371  53.1569 329.0504 0001594 119.2531 240.8649 15.74244541  3966"}}, "geometry": {"type": "Point", "coordinates": [142.2802175624672, 5.858750128877959]}}, {"type": "Feature", "properties": {"norad_id": 66372, "name": "STARLINK-35821", "group": "last-30-days", "lat": 7.211473561952575, "lon": 141.2529918218705, "alt_km": 345.9070960669542, "timestamp": "2025-12-02T07:10:07.865277+00:00", "meta": {"OBJECT_NAME": "STARLINK-35821", "OBJECT_ID": "2025-254AA", "EPOCH": "2025-12-01T12:09:48.911040", "MEAN_MOTION": 15.74237471, "ECCENTRICITY": 0.00016636, "INCLINATION": 53.1575, "RA_OF_ASC_NODE": 330.6291, "ARG_OF_PERICENTER": 89.1847, "MEAN_ANOMALY": 270.9363, "EPHEMERIS_TYPE": 0, "CLASSIFICATION_TYPE": "U", "NORAD_CAT_ID": 66372, "ELEMENT_SET_NO": 999, "REV_AT_EPOCH": 391, "BSTAR": 0.00091951412, "MEAN_MOTION_DOT": 0.00136526, "MEAN_MOTION_DDOT": 0}, "tle": {"line1": "1 66372U 25254AA  25335.50681610  .00136526  00000+0  91951-3 0  9997", "line2": "2 66372  53.1575 330.6291 0001663  89.1847 270.9363 15.74237471  3913"}}, "geometry": {"type": "Point", "coordinates": [141.2529918218705, 7.211473561952575]}}]}